{"type": "FeatureCollection", "name": "镇龙乡边界", "features": [{"type": "Feature", "properties": {"名称": "镇龙乡边界", "面积（平方千米）": 251.345}, "geometry": {"type": "Polygon", "coordinates": [[[109.25268062688706, 23.134418275748715], [109.25321522177207, 23.134088534219114], [109.25331064559829, 23.132739153829554], [109.25508882766243, 23.131583659277165], [109.25503238009127, 23.13073856854163], [109.2558706467659, 23.129400231142807], [109.25637639472971, 23.12586189117322], [109.25499738704791, 23.124659437146665], [109.2537363845179, 23.122445625861005], [109.25183417669925, 23.121741912198353], [109.25178903477936, 23.12106583907577], [109.25081537512054, 23.120375937488262], [109.2506799652845, 23.118347717809613], [109.25190087130724, 23.11718394764353], [109.25300378024329, 23.11703151347683], [109.25438156129044, 23.112661896765342], [109.25579936484037, 23.11166987023981], [109.2585282785251, 23.11086614791156], [109.25886577777763, 23.110364604755734], [109.25854455793258, 23.108333626749374], [109.25784697946858, 23.108998674505482], [109.25775663474458, 23.107646526426244], [109.25637778854876, 23.106444092427793], [109.25563504891048, 23.10643305660187], [109.2534909270863, 23.104881523308936], [109.25202803944343, 23.10519745911477], [109.25319237070198, 23.10318857588016], [109.25408690632455, 23.102695327400944], [109.2548911194409, 23.10084992461837], [109.25476693604617, 23.09899071975217], [109.25566143763805, 23.098497460043074], [109.25577936772325, 23.0974861066813], [109.2567416063141, 23.09800695232952], [109.25879530949597, 23.09820628906466], [109.26056804442061, 23.09975224312322], [109.26335318996173, 23.099793514092646], [109.26738155338845, 23.09900886263568], [109.26835515860581, 23.099698659487967], [109.2702232378188, 23.099895106006176], [109.27124210487284, 23.101260961240467], [109.27291322020054, 23.10128561787591], [109.27486517987741, 23.099963580161976], [109.27580488577321, 23.100146277348653], [109.27669932689943, 23.09965289421492], [109.27837042741399, 23.09967749189968], [109.281633371954, 23.09854350302582], [109.28150430976613, 23.099385868507756], [109.28318673647797, 23.09957943389384], [109.28438009217975, 23.100778919702375], [109.28609652843441, 23.101479511869773], [109.28750960149796, 23.103188755822313], [109.28974914085674, 23.103390418465832], [109.29094691714498, 23.10188827772738], [109.29412619655162, 23.10227248098229], [109.29500925270719, 23.101609972164926], [109.29814316738533, 23.101318018807717], [109.29781001935606, 23.099118065546755], [109.29908708394156, 23.098798986928042], [109.29941305977268, 23.098128326563206], [109.30201255352273, 23.09816620634101], [109.30285014656175, 23.096827573775325], [109.30542691412592, 23.096527357782698], [109.30591582131137, 23.095521343669844], [109.30647284655225, 23.095529440790816], [109.30770443734818, 23.094534213121587], [109.3116376760407, 23.09509786260559], [109.31211517093449, 23.09392280711627], [109.31531708501588, 23.094644614401624], [109.31810220945225, 23.094684913524997], [109.31869334396046, 23.09520002418778], [109.31898134977065, 23.096723878437775], [109.31995522513907, 23.09741337173943], [109.3200007103495, 23.098089447208228], [109.32132321684924, 23.098446260691283], [109.32172869857934, 23.098958679797278], [109.32522251485656, 23.09850252385888], [109.32581731584534, 23.096315984299054], [109.3255747458318, 23.09546821363697], [109.32652949299958, 23.093118002196253], [109.32644983654005, 23.091934869495073], [109.32698409295769, 23.091604855389118], [109.32691581251024, 23.09059074150871], [109.32874975285922, 23.0902794354483], [109.33014404159833, 23.088948653233917], [109.33145510710854, 23.08913635940448], [109.33248941100481, 23.087969235285012], [109.33234485344421, 23.08307034958935], [109.3341331257611, 23.082082896969254], [109.33472769433548, 23.079896306816465], [109.33615598854868, 23.079072517964015], [109.33663320905077, 23.07789737019089], [109.33865261411646, 23.07758859893683], [109.33895555032568, 23.076579802148395], [109.34106940131883, 23.07492150232568], [109.34255460440359, 23.074942746547258], [109.34486543854673, 23.07345606535828], [109.34597933092617, 23.073471972378506], [109.34624798905182, 23.071956099452567], [109.3475018930784, 23.07129856749006], [109.3470539205592, 23.067408474165624], [109.34554598966862, 23.067049238275786], [109.34154823000024, 23.062770699383634], [109.34104018811436, 23.06073715581878], [109.34044910447109, 23.060222130518135], [109.34052076238473, 23.05853459151075], [109.33912690368096, 23.05986549452852], [109.33803591539268, 23.060187584666107], [109.33773301749274, 23.061196383433852], [109.33663062331898, 23.061349443621715], [109.33612266033053, 23.05931588851165], [109.33508061467764, 23.05761238600579], [109.3350156518386, 23.053896618114653], [109.33425038997626, 23.053547929908326], [109.33420483294546, 23.05287185160169], [109.33773160506361, 23.052922403649223], [109.3391481913049, 23.05192954765991], [109.33917427200431, 23.04956592970883], [109.33987114807236, 23.048900475819664], [109.34059406808801, 23.045871397674915], [109.33783270183187, 23.046169592895577], [109.33687047154359, 23.045649241550624], [109.33617359945342, 23.0463146825853], [109.33543115728698, 23.04630404137368], [109.33237029621047, 23.044909284169957], [109.32713913185647, 23.044327541680076], [109.32766180966053, 23.043828492494793], [109.32777912863051, 23.042817043704666], [109.32905559825943, 23.042497684963198], [109.32899868450046, 23.041652586244442], [109.32861609533589, 23.041478230232844], [109.32869925688892, 23.039959720591888], [109.33132044617057, 23.04033509262438], [109.33241128401144, 23.040013039656376], [109.33237712308576, 23.039505980305417], [109.33140357590891, 23.03881657953033], [109.32896801448574, 23.038443878318986], [109.3276119163378, 23.037580100124714], [109.32536198838874, 23.03721001428931], [109.32496803899257, 23.036866630577606], [109.3247859980145, 23.034162313142133], [109.32271035392054, 23.033625845621767], [109.32186562194788, 23.03209396642111], [109.32039227718094, 23.03224157525933], [109.3203581613996, 23.031734515598306], [109.32108914488539, 23.03157620296517], [109.32157767078965, 23.03057011170732], [109.32288815934801, 23.030757856375253], [109.32299053561297, 23.03227903546251], [109.32352455407248, 23.031949017324262], [109.32341079604012, 23.03025881826577], [109.32477817225161, 23.03129164727734], [109.32460751215044, 23.028756348410134], [109.32501281612876, 23.029268751852296], [109.325558196177, 23.029107745716107], [109.32547854753882, 23.027924606072546], [109.32618674734218, 23.02742822820264], [109.32717506422496, 23.025585024897737], [109.3270384997473, 23.023556784747672], [109.3264817643073, 23.023548777489566], [109.3259933026882, 23.02455488838915], [109.32523960572738, 23.024375186377316], [109.32586461683056, 23.025397318237076], [109.32499360098204, 23.026229064051666], [109.32462243709685, 23.02622372087321], [109.32454279662757, 23.025040580926994], [109.32375497081871, 23.02435381194639], [109.32389504458344, 23.023680404445905], [109.32297852822421, 23.023836059473897], [109.32301265389953, 23.024343119514896], [109.32399743231883, 23.025201584533747], [109.32428540374502, 23.026725436761822], [109.32338024253316, 23.027050112776784], [109.32280074387423, 23.026704051870034], [109.32246370272574, 23.027205763378877], [109.32362270531355, 23.027897885808596], [109.32483077403849, 23.026564432532847], [109.32521331688893, 23.026738795254996], [109.32469070090009, 23.027237840725743], [109.3249331722748, 23.02808561223194], [109.32365683338645, 23.028404945664093], [109.32355087961975, 23.02958541201149], [109.32280853414429, 23.029574716939667], [109.32255469959469, 23.02855792301227], [109.32288036904784, 23.027887191616582], [109.32194107531348, 23.02770479903105], [109.32153578776806, 23.02719238857969], [109.32116462194126, 23.02718703713847], [109.32140707080836, 23.028034812750004], [109.32233499146594, 23.028048188642796], [109.3218009864176, 23.028378203655056], [109.32183510764173, 23.02888526347931], [109.32247148514925, 23.030076427871542], [109.32131247115116, 23.02938429643373], [109.32126697883622, 23.0287082166973], [109.3207784583582, 23.029714307481754], [109.32036179800409, 23.029032874148335], [109.31980504209515, 23.029024842086315], [109.32004748480638, 23.02987261928594], [109.31935062164298, 23.03053798734152], [109.32045277377962, 23.030385033526947], [109.32049826200102, 23.03106111315397], [109.31790003042205, 23.031023613409836], [109.31732053084924, 23.0306775324084], [109.31685841567246, 23.029320011229036], [109.31648724496421, 23.029314648476646], [109.31679787138465, 23.03117654894105], [109.31735463522014, 23.03118459210183], [109.3175743284033, 23.031694332391655], [109.31850227217627, 23.031707732229115], [109.31763117066942, 23.03253943179155], [109.31628657485903, 23.031844583370997], [109.31601005396077, 23.030489742095533], [109.31463139276678, 23.02928782167173], [109.3141693088613, 23.027930294281987], [109.31262783261779, 23.02706371402329], [109.31043875888042, 23.024836896081872], [109.30987450018958, 23.02195817902477], [109.30798468598633, 23.02142422059212], [109.30601540996219, 23.01970710017256], [109.30664414632311, 23.01802767019328], [109.3058564557053, 23.017340819276694], [109.30742436519706, 23.015843867366723], [109.30806441978704, 23.014333449032435], [109.3082879077383, 23.012141567135718], [109.30914756531422, 23.011140892420887], [109.30887114455578, 23.00978604202196], [109.30956794221984, 23.009120715190257], [109.30909460694119, 23.007594156560106], [109.31001102257596, 23.007438576099787], [109.30935213416589, 23.005909330585048], [109.30919312087877, 23.003543046596192], [109.3109918140515, 23.00272481472863], [109.31164311889538, 23.001383393867776], [109.31090471489694, 22.998671012073842], [109.31012846602373, 22.998153206560445], [109.3113931787495, 22.9976649457185], [109.31154463736979, 22.997160569403214], [109.3107797540711, 22.996811787714275], [109.31090849340542, 22.995969371170585], [109.3096930304038, 22.994432070772014], [109.30701602787806, 22.99321129213641], [109.30540686143964, 22.991330541923016], [109.30625504225078, 22.990160853248206], [109.30596732489602, 22.988636978115476], [109.30220000962592, 22.987738019675653], [109.29943979814396, 22.98803561192515], [109.2974937797876, 22.986656454777876], [109.29706601505495, 22.98580595090683], [109.29763795509969, 22.983281443958173], [109.29681647485039, 22.982087498357735], [109.29118290800027, 22.98099225327955], [109.29110355948073, 22.97980910903904], [109.2903274957798, 22.979291216268543], [109.28954427982201, 22.97590267793253], [109.2921187429186, 22.97560253853455], [109.2913128249216, 22.971875964668946], [109.29055947314532, 22.97169611659317], [109.29010912517896, 22.970507556409682], [109.28936711617783, 22.970496723887088], [109.28782644208258, 22.96962994467437], [109.28655481844383, 22.967247388180688], [109.28557068814202, 22.96638872357018], [109.28464320736344, 22.966375157528002], [109.28394652931263, 22.967040383950366], [109.28326545482412, 22.965173010359255], [109.28251215294254, 22.964993126767638], [109.2822813608515, 22.964314327273932], [109.28134257257184, 22.964131722036377], [109.28300068239028, 22.963987149260795], [109.28368602180106, 22.96315290524339], [109.28355010764841, 22.961124654949664], [109.28196428008708, 22.959581743338198], [109.27889025350184, 22.960718680630713], [109.27592245171532, 22.96067513272794], [109.27345454940746, 22.959794604994745], [109.27239819468883, 22.96062334755988], [109.2701044962607, 22.959576475851037], [109.2692607801417, 22.958044365737063], [109.26813657475266, 22.95785895469966], [109.2657931238726, 22.95883754092626], [109.26567546248073, 22.959848930583338], [109.26441097289288, 22.96033683996856], [109.26339976649835, 22.96184160168197], [109.26115131919175, 22.96147068596789], [109.26076904761285, 22.961296183140792], [109.2610722326311, 22.96028754053399], [109.26078506758704, 22.958763612459194], [109.26133021908458, 22.958602813720738], [109.26156089668565, 22.959281637208846], [109.26246571759515, 22.958957293641024], [109.26200435612115, 22.95759964850892], [109.26144791083786, 22.957591429054748], [109.2616154947787, 22.954554533564444], [109.25797848162937, 22.95281223159205], [109.25612373426506, 22.952784782772873], [109.24941915706104, 22.95504932532579], [109.24627733087257, 22.955171496965857], [109.24503538355094, 22.95599729178527], [109.24336608392976, 22.95597245025813], [109.24290492520775, 22.95461476145276], [109.24309546477232, 22.95191595147724], [109.23941984103315, 22.952367748160626], [109.23808772724115, 22.95184132235086], [109.23723924826167, 22.953010630198644], [109.23558125889996, 22.953154729677735], [109.2337828501991, 22.953972122441836], [109.23426644333513, 22.95566787349159], [109.23316484941441, 22.95582025975436], [109.23218115781968, 22.954961288311228], [109.23143925770472, 22.954950190047732], [109.23110208966301, 22.955451701676978], [109.23122595752194, 22.957310929040847], [109.22978716868235, 22.95796480108553], [109.22830333809972, 22.957942576664998], [109.22566745840119, 22.960098136214018], [109.22454331806648, 22.959912418641938], [109.22423986804286, 22.960920974611838], [109.22276726010624, 22.96106771683867], [109.22210407584582, 22.962239716170274], [109.2205134526125, 22.96339777209546], [109.21918700892878, 22.96574174370963], [109.21612364393572, 22.967046441583854], [109.21221712533283, 22.966818700764097], [109.21163818556084, 22.966472263581053], [109.20738318521505, 22.96657684656697], [109.20605108000805, 22.96605015142312], [109.2032575456686, 22.96583902227983], [109.20022771402729, 22.967650463166578], [109.19554563250718, 22.966904000058864], [109.19480368289372, 22.966892726371288], [109.19465184053234, 22.96739696810277], [109.19374682842768, 22.967720910447802], [109.18964367249485, 22.96732077406138], [109.18864282289827, 22.96899402224614], [109.18663605409212, 22.96946998086299], [109.18585425510338, 22.971653096347094], [109.18515709605991, 22.972317855978577], [109.18538740320317, 22.972996766752352], [109.1837291534879, 22.97314030443832], [109.18286888147694, 22.974140260163527], [109.1804686333379, 22.974272427080006], [109.17956838144389, 22.977466784971497], [109.17652680442829, 22.97910871356123], [109.17479487504457, 22.980939508217702], [109.17502514064424, 22.981618430970713], [109.17438382475507, 22.983128234536462], [109.17446215165236, 22.98431137315378], [109.17277019735339, 22.98394772729189], [109.17218011242525, 22.983432128620525], [109.17069605343214, 22.98340934758563], [109.16962774432977, 22.984068331727194], [109.16887452965794, 22.983887911028408], [109.16594658862597, 22.981647870018726], [109.16557557996553, 22.98164216178641], [109.16562029413039, 22.98231824075773], [109.162162744226, 22.983278087337993], [109.16182525329765, 22.983779429008734], [109.16234153344817, 22.985982402056198], [109.16202638368473, 22.986821782827814], [109.15950742791375, 22.98796487358353], [109.1579271689551, 22.98929126340356], [109.15662857217968, 22.98927121038082], [109.15702627000515, 22.99248544667531], [109.15624384541711, 22.994668370657777], [109.15722729046948, 22.995527797280694], [109.15727629202112, 22.999074339861224], [109.15616312925361, 22.999057142443522], [109.15612706273681, 23.004121988833294], [109.15751514596505, 23.00549420972518], [109.15863953195147, 23.00568042037865], [109.15963423866793, 23.006708856460868], [109.16334500137157, 23.00676608301808], [109.16450293948355, 23.007459311482624], [109.1667182349937, 23.00732457082154], [109.16730839473242, 23.007840193743984], [109.1681623697834, 23.00954180413671], [109.16789644505445, 23.01392774421671], [109.17101062983392, 23.01617063862849], [109.17094811014398, 23.018026999492033], [109.17169032875955, 23.018038402714026], [109.17091914107453, 23.020390417483664], [109.16944586207883, 23.020536617889604], [109.16829897075272, 23.020012437059997], [109.16509753165485, 23.024859716873816], [109.16556925979377, 23.026386605656175], [109.16467496337916, 23.026879368750578], [109.16319043591366, 23.026856486834024], [109.16306074412044, 23.027698720828067], [109.16216643062646, 23.028191468508187], [109.16221112556218, 23.02886754456901], [109.16145767901095, 23.028687074090254], [109.16114240466133, 23.02952644203254], [109.160400127794, 23.029514985313916], [109.15993962176479, 23.028157103741677], [109.15938292009575, 23.02814850766099], [109.15924203297541, 23.028821717810754], [109.15869649815357, 23.028982138075204], [109.15653241484219, 23.027091384089204], [109.15552642980688, 23.025893903850697], [109.1554259415465, 23.02437273286978], [109.1550324887616, 23.02402895443884], [109.15556684107584, 23.023699526690596], [109.15553334465037, 23.023192469619303], [109.15496550005912, 23.023014840337144], [109.15312106693796, 23.02315514437573], [109.1524346361463, 23.02398874724607], [109.15077575003795, 23.02413189624527], [109.15044926477397, 23.02480222079113], [109.14899824423422, 23.02528626373482], [109.1465970928775, 23.025417855398807], [109.14667517279656, 23.02660098764129], [109.14502740523531, 23.026913092554416], [109.14468973285489, 23.027414383869534], [109.1448681634461, 23.030118685161806], [109.14273053991833, 23.031436225214893], [109.14347680142723, 23.03431819956538], [109.1418400819255, 23.034799282957756], [109.14117581553883, 23.035970864689684], [109.13768330686096, 23.036423014549946], [109.13614681355644, 23.038425202246053], [109.13467332395875, 23.03857106310488], [109.13415000320936, 23.03906943105892], [109.13405353001812, 23.040418683092465], [109.13227567161343, 23.041572837007273], [109.13243157773955, 23.043939095794407], [109.13030475106238, 23.0454254616775], [109.13068329839302, 23.05117208664203], [109.13184141352392, 23.05186556449383], [109.13252070114532, 23.053733465518228], [109.13454001688712, 23.053427309815913], [109.13549029234336, 23.053779829173724], [109.13790691807945, 23.05668787750342], [109.13680443666112, 23.056839531443316], [109.13596554049909, 23.058177201578406], [109.1370049864723, 23.059881860927337], [109.1398744115542, 23.05840698423075], [109.14024562455445, 23.058412766307587], [109.14027906215381, 23.058919821319353], [109.14158946083987, 23.059109070122037], [109.14164519862042, 23.059954161818073], [109.14402466321118, 23.05948464944313], [109.14548005478925, 23.061871106555763], [109.14967509691371, 23.063624707309238], [109.15146838793105, 23.065509822482618], [109.15237415371486, 23.065186174414112], [109.15387025457345, 23.06537820331172], [109.15431963339665, 23.066567082405957], [109.15741932761135, 23.06577083431332], [109.15862663626713, 23.070010647927493], [109.15977389404553, 23.070534920732374], [109.16020099826731, 23.07138575004387], [109.16155624650537, 23.07225091631826], [109.1641885659641, 23.07279808849196], [109.16556621066478, 23.07400125968627], [109.16667999525745, 23.074018430597146], [109.16688798430013, 23.074359328410686], [109.16796823124179, 23.073869435025053], [109.17077506354478, 23.074250341943987], [109.17184411214075, 23.073591402560243], [109.17295789747587, 23.07360852901414], [109.1741678082169, 23.072276352242003], [109.17508476541552, 23.07212159212476], [109.17588981570972, 23.070276641454168], [109.18285405398846, 23.06903263628924], [109.18465430522805, 23.06821594962103], [109.18514396696976, 23.067210355436035], [109.18662895581922, 23.067233059557505], [109.18835560061568, 23.06810367838511], [109.19002622733451, 23.068129186299725], [109.19146639021629, 23.06747577042134], [109.19205064131448, 23.07069278784412], [109.19199953934809, 23.072718180323072], [109.19129064155906, 23.073213909169617], [109.19133548072914, 23.07388998359318], [109.19213406819652, 23.074746403635856], [109.19224617694023, 23.076436589460076], [109.19339363604533, 23.076960629343464], [109.19365776238344, 23.078146589230197], [109.19404025446566, 23.07832126702483], [109.19364031126791, 23.080679037326], [109.19617704431546, 23.082575013660712], [109.19642998663468, 23.08359195183321], [109.19878116375645, 23.085485064250012], [109.19968084533785, 23.08786261895793], [109.19954007177815, 23.088535869053892], [109.19899432819032, 23.088696415044762], [109.19840876878068, 23.091051373220406], [109.19683879927817, 23.09254710144283], [109.1952015077419, 23.09302870155714], [109.19306328301651, 23.094346880667658], [109.19313055399655, 23.095360990465412], [109.19531863728913, 23.097589366492848], [109.19559402265841, 23.098944342094324], [109.19693856701085, 23.099640215332293], [109.19683141270073, 23.10082051511974], [109.1983330375734, 23.103882634346842], [109.19863089912945, 23.10557564274669], [109.19919915155471, 23.105753139039653], [109.19923280981793, 23.106260193579256], [109.20449917736038, 23.10735333731835], [109.20634475731501, 23.107212504344197], [109.20732930909006, 23.108071679857193], [109.21012577496654, 23.108282918759826], [109.21135221685478, 23.109989975515656], [109.21210619293144, 23.110170239106196], [109.21311327792027, 23.111367418395123], [109.2144355655976, 23.111725118254075], [109.21939292055264, 23.110955771657025], [109.22033260307808, 23.111138799208927], [109.22093465268459, 23.111823275183063], [109.22330360787319, 23.111183592319982], [109.22517174095556, 23.11138057793205], [109.2263533929245, 23.112411457550888], [109.22702300573786, 23.11411002223853], [109.22797397909963, 23.114462024507667], [109.22806402374641, 23.11581417045063], [109.2297915672854, 23.116684386349608], [109.23051753508639, 23.11922803056497], [109.23110841288832, 23.119743454229436], [109.2342765896851, 23.11995986015865], [109.23794013237344, 23.122040966812026], [109.23886865501497, 23.122054871698545], [109.23986480060593, 23.12308288032346], [109.24135045020243, 23.12310510810394], [109.24176695402241, 23.12378673565247], [109.24305563106485, 23.123637152268813], [109.2434834202518, 23.124487794089333], [109.24443451496434, 23.124839703771386], [109.2454367281531, 23.128738216276545], [109.24699012061943, 23.1297745042112], [109.24822850661796, 23.131650328728778], [109.25068798856141, 23.132362395602872], [109.25268062688706, 23.134418275748715]], [[109.3244219267767, 23.028753676273823], [109.3244105497807, 23.028584656328775], [109.32459613492195, 23.028587328464845], [109.3244219267767, 23.028753676273823]], [[109.32021805918286, 23.032407917781445], [109.32040364913587, 23.03241059514115], [109.3204150211047, 23.03257961502037], [109.32021805918286, 23.032407917781445]]]}}]}